ONEWEB-0275             
1 48993U 21060AC  26170.66133646  .00000001  00000+0 -31439-4 0  9998
2 48993  87.9095 228.2844 0001954  96.5271 263.6082 13.16594409239881
ONEWEB-0276             
1 48994U 21060AD  26170.69457957  .00000120  00000+0  28128-3 0  9997
2 48994  87.9097 228.2771 0001945  94.4593 265.6760 13.16594534239904
ONEWEB-0277             
1 48995U 21060AE  26170.70725645  .00000065  00000+0  13762-3 0  9998
2 48995  87.9091 228.2834 0001890 101.1702 258.9641 13.16593915239899
ONEWEB-0278             
1 48996U 21060AF  26170.69773365  .00000118  00000+0  27540-3 0  9997
2 48996  87.9098 228.2758 0002244  98.4237 261.7149 13.16592851240027
ONEWEB-0279             
1 48997U 21060AG  26170.70566427  .00000053  00000+0  10578-3 0  9990
2 48997  87.9098 228.2722 0001781  98.2676 261.8657 13.16594915239957
ONEWEB-0280             
1 48998U 21060AH  26170.64470492 -.00000057  00000+0 -18352-3 0  9994
2 48998  87.9095 228.2887 0002192 106.3543 253.7829 13.16593832239888
ONEWEB-0281             
1 48999U 21060AJ  26170.65024833 -.00000038  00000+0 -13272-3 0  9995
2 48999  87.9098 228.2827 0002118  97.4111 262.7261 13.16595183239954
ONEWEB-0282             
1 49000U 21060AK  26170.68032041  .00000116  00000+0  26994-3 0  9992
2 49000  87.9093 228.2851 0001979 101.6177 258.5176 13.16593030239939
ONEWEB-0283             
1 49001U 21060AL  26170.66924648  .00000003  00000+0 -25426-4 0  9990
2 49001  87.9093 228.2866 0001904  98.1862 261.9485 13.16594305239943
ONEWEB-0284             
1 49002U 21060AM  26170.66291823 -.00000009  00000+0 -57747-4 0  9991
2 49002  87.9094 228.2814 0002297 103.9582 256.1804 13.16594698239922
ONEWEB-0285             
1 49075U 21075A   26170.49985359  .00000310  00000+0  82695-3 0  9994
2 49075  87.8946 350.2019 0001789  93.3551 266.7782 13.12443263235513
ONEWEB-0286             
1 49076U 21075B   26170.55816831  .00000433  00000+0  11673-2 0  9993
2 49076  87.8937 350.2069 0001984  86.4107 273.7248 13.12444196234875
ONEWEB-0287             
1 49077U 21075C   26170.52067154  .00000025  00000+0  29998-4 0  9995
2 49077  87.9133   5.4016 0002264  84.4198 275.7192 13.17649804233930
ONEWEB-0288             
1 49078U 21075D   26170.00092077 -.00000222  00000+0 -65378-3 0  9993
2 49078  87.8946 350.2944 0002053  91.9775 268.1589 13.12444227235422
ONEWEB-0289             
1 49079U 21075E   26170.55934461 -.00000003  00000+0 -41591-4 0  9995
2 49079  87.9138   5.4107 0001926 100.6612 259.4736 13.17650214234519
ONEWEB-0290             
1 49080U 21075F   26170.30468557  .00000003  00000+0 -25872-4 0  9991
2 49080  87.9141   5.4334 0001867 104.6202 255.5137 13.17648645233897
ONEWEB-0291             
1 49081U 21075G   26170.51730423  .00000092  00000+0  20377-3 0  9990
2 49081  87.9135   5.3985 0002222  92.1866 267.9521 13.17649624233910
ONEWEB-0293             
1 49082U 21075H   26170.23886479 -.00000022  00000+0 -90566-4 0  9996
2 49082  87.9131   5.4572 0001901  92.6733 267.4616 13.17648742233900
ONEWEB-0294             
1 49083U 21075J   26170.23640849 -.00000066  00000+0 -21971-3 0  9997
2 49083  87.8947 350.2514 0001883 102.0973 258.0367 13.12445116234841
ONEWEB-0295             
1 49084U 21075K   26170.23802471  .00000026  00000+0  33089-4 0  9997
2 49084  87.9130   5.4614 0002179  88.7877 271.3504 13.17648859233865
ONEWEB-0296             
1 49085U 21075L   26170.52102648 -.00000397  00000+0 -11393-2 0  9994
2 49085  87.8953 350.2020 0002132  93.0882 267.0490 13.12441302234882
ONEWEB-0297             
1 49086U 21075M   26170.47528595  .00000263  00000+0  69656-3 0  9998
2 49086  87.8939 350.2218 0001914  90.2535 269.8813 13.12445085235485
ONEWEB-0298             
1 49087U 21075N   26170.24238305 -.00000019  00000+0 -82226-4 0  9991
2 49087  87.9131   5.4586 0001881  84.2877 275.8469 13.17648091233897
ONEWEB-0299             
1 49088U 21075P   26170.24393098 -.00000077  00000+0 -23274-3 0  9994
2 49088  87.9141   5.4387 0002037  86.0696 274.0668 13.17649485233879
ONEWEB-0300             
1 49089U 21075Q   26170.23894355 -.00000246  00000+0 -71998-3 0  9990
2 49089  87.8948 350.2484 0001768  79.0657 281.0670 13.12443662235475
ONEWEB-0301             
1 49090U 21075R   26170.22284748 -.00000438  00000+0 -12527-2 0  9995
2 49090  87.8948 350.2499 0001667  81.4336 278.6981 13.12441902234833
ONEWEB-0302             
1 49091U 21075S   26170.51425213 -.00000192  00000+0 -56872-3 0  9991
2 49091  87.8950 350.2037 0001960  99.7011 260.4339 13.12442840234853
ONEWEB-0304             
1 49092U 21075T   26170.29455297 -.00000004  00000+0 -44545-4 0  9999
2 49092  87.9133   5.4509 0002006  87.9382 272.1980 13.17648803233856
ONEWEB-0305             
1 49093U 21075U   26170.51561326  .00000059  00000+0  11840-3 0  9995
2 49093  87.9139   5.3915 0002233  85.5687 274.5699 13.17649075233919
ONEWEB-0308             
1 49094U 21075V   26170.50747563  .00000040  00000+0  75208-4 0  9993
2 49094  87.8949 350.1971 0001786  91.6642 268.4691 13.12442287234862
